{
  "norad_id": 63124,
  "name": "STARLINK-32957",
  "history": [
    {
      "epoch": "2026-03-28T18:34:34.560768Z",
      "apogee_km": 483.67218050670635,
      "perigee_km": 482.2485028083129,
      "latitude_deg": 2.2980321431686413e-05,
      "longitude_deg": 160.3324852590122,
      "height_km": 482.82645148059964,
      "semi_major_axis_km": 6861.097341657509,
      "eccentricity": 0.00010375,
      "inclination_deg": 42.9986,
      "raan_deg": 265.1661,
      "arg_perigee_deg": 262.7447,
      "mean_anomaly_deg": 97.3287,
      "mean_motion_rev_day": 15.27609641
    },
    {
      "epoch": "2026-03-29T03:59:30.254496Z",
      "apogee_km": 485.16495988778024,
      "perigee_km": 480.6695971245026,
      "latitude_deg": -4.860214711495153e-05,
      "longitude_deg": 16.495072084892335,
      "height_km": 482.49354708545724,
      "semi_major_axis_km": 6861.054278506141,
      "eccentricity": 0.0003276,
      "inclination_deg": 43.001,
      "raan_deg": 262.9475,
      "arg_perigee_deg": 275.153,
      "mean_anomaly_deg": 84.8947,
      "mean_motion_rev_day": 15.27624023
    },
    {
      "epoch": "2026-03-30T03:31:52.138272Z",
      "apogee_km": 483.9799551298811,
      "perigee_km": 482.06706357987423,
      "latitude_deg": 5.7536009988370726e-06,
      "longitude_deg": 16.900818938523518,
      "height_km": 482.49789540830056,
      "semi_major_axis_km": 6861.160509354878,
      "eccentricity": 0.0001394,
      "inclination_deg": 42.9968,
      "raan_deg": 257.4111,
      "arg_perigee_deg": 288.4022,
      "mean_anomaly_deg": 71.6678,
      "mean_motion_rev_day": 15.27588545
    },
    {
      "epoch": "2026-03-30T11:22:39.150336Z",
      "apogee_km": 483.7402427386187,
      "perigee_km": 482.28128827776163,
      "latitude_deg": -4.379378546659436e-05,
      "longitude_deg": -102.96405701077342,
      "height_km": 482.34349963686907,
      "semi_major_axis_km": 6861.14776550819,
      "eccentricity": 0.00010632,
      "inclination_deg": 42.9951,
      "raan_deg": 255.5644,
      "arg_perigee_deg": 307.3941,
      "mean_anomaly_deg": 52.6813,
      "mean_motion_rev_day": 15.27592801
    },
    {
      "epoch": "2026-03-30T19:13:26.247936Z",
      "apogee_km": 484.3259583741228,
      "perigee_km": 481.74272736353305,
      "latitude_deg": 5.9109491054632706e-05,
      "longitude_deg": 137.17027225939964,
      "height_km": 482.67116178084905,
      "semi_major_axis_km": 6861.171342868828,
      "eccentricity": 0.00018825,
      "inclination_deg": 43.0006,
      "raan_deg": 253.7171,
      "arg_perigee_deg": 276.2377,
      "mean_anomaly_deg": 83.8261,
      "mean_motion_rev_day": 15.27584927
    },
    {
      "epoch": "2026-03-31T17:11:39.387840Z",
      "apogee_km": 484.57293558235597,
      "perigee_km": 481.6692511572419,
      "latitude_deg": 5.929592219028331e-06,
      "longitude_deg": 161.54297834034358,
      "height_km": 482.719495299145,
      "semi_major_axis_km": 6861.258093369798,
      "eccentricity": 0.0002116,
      "inclination_deg": 42.9994,
      "raan_deg": 248.5469,
      "arg_perigee_deg": 277.0744,
      "mean_anomaly_deg": 82.9867,
      "mean_motion_rev_day": 15.27555956
    },
    {
      "epoch": "2026-04-01T16:43:59.514240Z",
      "apogee_km": 484.0700097127901,
      "perigee_km": 481.78115923461064,
      "latitude_deg": 1.2575439962291876e-05,
      "longitude_deg": 161.95391742754353,
      "height_km": 482.4582591981244,
      "semi_major_axis_km": 6861.062584473701,
      "eccentricity": 0.0001668,
      "inclination_deg": 42.9994,
      "raan_deg": 243.0084,
      "arg_perigee_deg": 282.3194,
      "mean_anomaly_deg": 77.7471,
      "mean_motion_rev_day": 15.27621249
    },
    {
      "epoch": "2026-04-02T16:16:18.981408Z",
      "apogee_km": 484.25119513967456,
      "perigee_km": 481.6150347801058,
      "latitude_deg": 2.683326154265238e-05,
      "longitude_deg": 162.36761854034305,
      "height_km": 482.6646960132176,
      "semi_major_axis_km": 6861.07011495989,
      "eccentricity": 0.00019211,
      "inclination_deg": 43.0011,
      "raan_deg": 237.4699,
      "arg_perigee_deg": 271.985,
      "mean_anomaly_deg": 88.0782,
      "mean_motion_rev_day": 15.27618734
    },
    {
      "epoch": "2026-04-03T17:22:47.753184Z",
      "apogee_km": 484.9566523484218,
      "perigee_km": 480.8304285813865,
      "latitude_deg": -3.832601088781347e-06,
      "longitude_deg": 138.80685501107666,
      "height_km": 483.1108353336728,
      "semi_major_axis_km": 6861.030540464904,
      "eccentricity": 0.0003007,
      "inclination_deg": 43.0025,
      "raan_deg": 231.5602,
      "arg_perigee_deg": 257.7067,
      "mean_anomaly_deg": 102.3448,
      "mean_motion_rev_day": 15.27631951
    },
    {
      "epoch": "2026-04-04T15:21:00.819648Z",
      "apogee_km": 483.9907330814467,
      "perigee_km": 482.09155897062647,
      "latitude_deg": 5.380129255574141e-07,
      "longitude_deg": 163.18142743792174,
      "height_km": 482.81428752919754,
      "semi_major_axis_km": 6861.178146026036,
      "eccentricity": 0.0001384,
      "inclination_deg": 42.9994,
      "raan_deg": 226.3915,
      "arg_perigee_deg": 270.21,
      "mean_anomaly_deg": 89.8593,
      "mean_motion_rev_day": 15.27582655
    },
    {
      "epoch": "2026-04-05T14:53:22.706016Z",
      "apogee_km": 484.4111380934655,
      "perigee_km": 481.78877332899174,
      "latitude_deg": -4.338166539668352e-05,
      "longitude_deg": 163.58525661108447,
      "height_km": 482.89467652151063,
      "semi_major_axis_km": 6861.236955711228,
      "eccentricity": 0.0001911,
      "inclination_deg": 43.0003,
      "raan_deg": 220.8533,
      "arg_perigee_deg": 269.2319,
      "mean_anomaly_deg": 90.8313,
      "mean_motion_rev_day": 15.27563015
    },
    {
      "epoch": "2026-04-07T09:15:35.380224Z",
      "apogee_km": 484.04677055267257,
      "perigee_km": 481.90047792719724,
      "latitude_deg": 2.9594082018119728e-05,
      "longitude_deg": -123.67806081718251,
      "height_km": 483.20787187901266,
      "semi_major_axis_km": 6861.110624239935,
      "eccentricity": 0.00015641,
      "inclination_deg": 42.9994,
      "raan_deg": 210.8828,
      "arg_perigee_deg": 244.7559,
      "mean_anomaly_deg": 115.3131,
      "mean_motion_rev_day": 15.27605205
    },
    {
      "epoch": "2026-04-08T13:30:24.382080Z",
      "apogee_km": 484.0100641246745,
      "perigee_km": 482.07397662870426,
      "latitude_deg": 3.2107935118604424e-06,
      "longitude_deg": 164.81247229857865,
      "height_km": 482.6648207980791,
      "semi_major_axis_km": 6861.179020376689,
      "eccentricity": 0.00014109,
      "inclination_deg": 43.0004,
      "raan_deg": 204.2376,
      "arg_perigee_deg": 279.1514,
      "mean_anomaly_deg": 80.9178,
      "mean_motion_rev_day": 15.27582363
    },
    {
      "epoch": "2026-04-09T13:02:45.116736Z",
      "apogee_km": 484.0496340156369,
      "perigee_km": 481.96947160375566,
      "latitude_deg": -7.673618624007169e-07,
      "longitude_deg": 165.21685452778186,
      "height_km": 482.82714612069,
      "semi_major_axis_km": 6861.146552809696,
      "eccentricity": 0.00015159,
      "inclination_deg": 42.9986,
      "raan_deg": 198.6951,
      "arg_perigee_deg": 267.743,
      "mean_anomaly_deg": 92.3248,
      "mean_motion_rev_day": 15.27593206
    },
    {
      "epoch": "2026-04-10T06:18:28.643328Z",
      "apogee_km": 484.24423358316653,
      "perigee_km": 481.77312335560873,
      "latitude_deg": -2.292440377917145e-05,
      "longitude_deg": -98.48596073257465,
      "height_km": 482.99799223642316,
      "semi_major_axis_km": 6861.145678469387,
      "eccentricity": 0.00018008,
      "inclination_deg": 42.9984,
      "raan_deg": 194.6326,
      "arg_perigee_deg": 260.0957,
      "mean_anomaly_deg": 99.9691,
      "mean_motion_rev_day": 15.27593498
    },
    {
      "epoch": "2026-04-11T15:15:45.859680Z",
      "apogee_km": 484.05335893273696,
      "perigee_km": 481.97443021168056,
      "latitude_deg": -3.487599954203153e-06,
      "longitude_deg": 118.08931763032274,
      "height_km": 482.80389100183794,
      "semi_major_axis_km": 6861.150894572208,
      "eccentricity": 0.0001515,
      "inclination_deg": 43.0026,
      "raan_deg": 186.883,
      "arg_perigee_deg": 269.2882,
      "mean_anomaly_deg": 90.7796,
      "mean_motion_rev_day": 15.27591756
    },
    {
      "epoch": "2026-04-13T06:29:40.237440Z",
      "apogee_km": 484.008602080783,
      "perigee_km": 482.08294252390806,
      "latitude_deg": -4.636186777811586e-05,
      "longitude_deg": -121.23099461367957,
      "height_km": 483.15328240674313,
      "semi_major_axis_km": 6861.182772302345,
      "eccentricity": 0.00014033,
      "inclination_deg": 43.0028,
      "raan_deg": 177.6505,
      "arg_perigee_deg": 249.9177,
      "mean_anomaly_deg": 110.1523,
      "mean_motion_rev_day": 15.2758111
    },
    {
      "epoch": "2026-04-14T12:18:38.798784Z",
      "apogee_km": 484.13156153834007,
      "perigee_km": 481.9483350333958,
      "latitude_deg": -2.748005038665364e-05,
      "longitude_deg": 143.2838105477133,
      "height_km": 482.7829137450728,
      "semi_major_axis_km": 6861.176948285867,
      "eccentricity": 0.0001591,
      "inclination_deg": 43.0023,
      "raan_deg": 170.6338,
      "arg_perigee_deg": 271.793,
      "mean_anomaly_deg": 88.2739,
      "mean_motion_rev_day": 15.27583055
    },
    {
      "epoch": "2026-04-15T11:50:59.153280Z",
      "apogee_km": 484.09292423990064,
      "perigee_km": 481.9289181855511,
      "latitude_deg": 4.210250488922665e-06,
      "longitude_deg": 143.69302380383309,
      "height_km": 482.80057650134813,
      "semi_major_axis_km": 6861.147921212726,
      "eccentricity": 0.0001577,
      "inclination_deg": 43.0022,
      "raan_deg": 165.0945,
      "arg_perigee_deg": 269.3345,
      "mean_anomaly_deg": 90.7326,
      "mean_motion_rev_day": 15.27592749
    }
  ]
}